CORVUS BC1              
1 42847U 17042Y   26068.93334460  .00004853  00000+0  33801-3 0  9990
2 42847  97.3986 234.9925 0013283  71.1953 289.0714 15.05817892472152
STARLINK-4070           
1 52664U 22053J   26068.54770676  .00001030  00000+0  82823-4 0  9999
2 52664  53.2149 154.7596 0001344  82.1516 277.9629 15.08836537211025
